FLOCK 4G-6              
1 62660U 25009BD  26068.71061311  .00012261  00000+0  45910-3 0  9991
2 62660  97.3980 150.7943 0002380 348.2637  11.8546 15.27432125121307
STARLINK-32944          
1 63022U 25032T   26068.15618337  .00037562  00000+0  13665-2 0  9996
2 63022  43.0004 339.4817 0002541 249.7055 110.3524 15.27603756 60537
